ONEWEB-0593             
1 54659U 22166T   23321.08241034 -.00000058  00000+0 -17152-3 0  9992
2 54659  87.9254  71.7246 0001949  95.7168 264.4188 13.21823640 47422
ONEWEB-0594             
1 54660U 22166U   23320.34436963  .00000079  00000+0  15947-3 0  9990
2 54660  87.9245  71.8682 0001512  95.3686 264.7620 13.21825742 46873
ONEWEB-0595             
1 54661U 22166V   23320.39798713  .00000027  00000+0  33524-4 0  9995
2 54661  87.9245  71.8501 0001517 112.2839 247.8456 13.21825924 46857
ONEWEB-0596             
1 54662U 22166W   23320.74966304 -.00000060  00000+0 -17586-3 0  9996
2 54662  87.9247  71.7813 0002184 102.5012 257.6366 13.21827336 46905
ONEWEB-0597             
1 54663U 22166X   23320.35225873  .00000031  00000+0  43090-4 0  9999
2 54663  87.9246  71.8614 0001978  90.2352 269.9009 13.21824809 46851
ONEWEB-0600             
1 54664U 22166Y   23320.33490804 -.00000402  00000+0 -10059-2 0  9997
2 54664  87.9247  71.9159 0001826  92.4146 267.7197 13.21825980 46827
ONEWEB-0601             
1 54665U 22166Z   23320.32705190  .00000144  00000+0  31772-3 0  9991
2 54665  87.9249  71.8673 0002173 105.8185 254.3188 13.21826541 47016
ONEWEB-0602             
1 54666U 22166AA  23320.36802547  .00000068  00000+0  13346-3 0  9992
2 54666  87.9247  71.8652 0002055  92.4116 267.7254 13.21824444 46860
